{"type": "FeatureCollection", "features": [ {"type": "Feature", "properties": {"norad_id": 35241, "name": "FENGYUN 1C DEB", "group": "fengyun-1c-debris", "lat": -14.20140583732908, "lon": -86.0617007420621, "alt_km": 947.2397514967797, "timestamp": "2025-12-08T10:52:03.235555+00:00", "meta": {"OBJECT_NAME": "FENGYUN 1C DEB", "OBJECT_ID": "1999-025DQZ", "EPOCH": "2025-11-30T05:56:44.334240", "MEAN_MOTION": 14.01843685, "ECCENTRICITY": 0.01367336, "INCLINATION": 98.628, "RA_OF_ASC_NODE": 263.9706, "ARG_OF_PERICENTER": 244.1586, "MEAN_ANOMALY": 114.5426, "EPHEMERIS_TYPE": 0, "CLASSIFICATION_TYPE": "U", "NORAD_CAT_ID": 35241, "ELEMENT_SET_NO": 999, "REV_AT_EPOCH": 87431, "BSTAR": 0.001716208, "MEAN_MOTION_DOT": 2.791e-05, "MEAN_MOTION_DDOT": 0}, "tle": {"line1": "1 35241U 99025DQZ 25334.24773535  .00002791  00000+0  17162-2 0  9990", "line2": "2 35241  98.6280 263.9706 0136733 244.1586 114.5426 14.01843685874312"}}, "geometry": {"type": "Point", "coordinates": [-86.0617007420621, -14.20140583732908]}}, {"type": "Feature", "properties": {"norad_id": 35242, "name": "FENGYUN 1C DEB", "group": "fengyun-1c-debris", "lat": 62.180496177052525, "lon": -125.55754567311561, "alt_km": 1024.7634920075334, "timestamp": "2025-12-08T10:52:03.235565+00:00", "meta": {"OBJECT_NAME": "FENGYUN 1C DEB", "OBJECT_ID": "1999-025DRA", "EPOCH": "2025-12-07T22:44:24.710208", "MEAN_MOTION": 13.52325577, "ECCENTRICITY": 0.030181, "INCLINATION": 99.9692, "RA_OF_ASC_NODE": 34.4646, "ARG_OF_PERICENTER": 200.6269, "MEAN_ANOMALY": 340.0817, "EPHEMERIS_TYPE": 0, "CLASSIFICATION_TYPE": "U", "NORAD_CAT_ID": 35242, "ELEMENT_SET_NO": 999, "REV_AT_EPOCH": 58062, "BSTAR": 0.002283113, "MEAN_MOTION_DOT": 1.961e-05, "MEAN_MOTION_DDOT": 0}, "tle": {"line1": "1 35242U 99025DRA 25341.94750822  .00001961  00000+0  22831-2 0  9997", "line2": "2 35242  99.9692  34.4646 0301810 200.6269 340.0817 13.52325577580621"}}, "geometry": {"type": "Point", "coordinates": [-125.55754567311561, 62.180496177052525]}}, {"type": "Feature", "properties": {"norad_id": 35243, "name": "FENGYUN 1C DEB", "group": "fengyun-1c-debris", "lat": -75.12478668410891, "lon": -155.23211532782622, "alt_km": 570.4034193378129, "timestamp": "2025-12-08T10:52:03.235576+00:00", "meta": {"OBJECT_NAME": "FENGYUN 1C DEB", "OBJECT_ID": "1999-025DRB", "EPOCH": "2025-12-07T22:23:56.408064", "MEAN_MOTION": 14.86637843, "ECCENTRICITY": 0.00664071, "INCLINATION": 98.8797, "RA_OF_ASC_NODE": 60.2448, "ARG_OF_PERICENTER": 272.3936, "MEAN_ANOMALY": 86.9674, "EPHEMERIS_TYPE": 0, "CLASSIFICATION_TYPE": "U", "NORAD_CAT_ID": 35243, "ELEMENT_SET_NO": 999, "REV_AT_EPOCH": 90929, "BSTAR": 0.002415103, "MEAN_MOTION_DOT": 0.00022308, "MEAN_MOTION_DDOT": 0}, "tle": {"line1": "1 35243U 99025DRB 25341.93329176  .00022308  00000+0  24151-2 0  9996", "line2": "2 35243  98.8797  60.2448 0066407 272.3936  86.9674 14.86637843909295"}}, "geometry": {"type": "Point", "coordinates": [-155.23211532782622, -75.12478668410891]}}, {"type": "Feature", "properties": {"norad_id": 35244, "name": "FENGYUN 1C DEB", "group": "fengyun-1c-debris", "lat": 36.23087583811448, "lon": 16.22072311313604, "alt_km": 903.2584041558839, "timestamp": "2025-12-08T10:52:03.235586+00:00", "meta": {"OBJECT_NAME": "FENGYUN 1C DEB", "OBJECT_ID": "1999-025DRC", "EPOCH": "2025-12-04T21:19:55.479648", "MEAN_MOTION": 14.06607705, "ECCENTRICITY": 0.0071739, "INCLINATION": 98.8416, "RA_OF_ASC_NODE": 19.287, "ARG_OF_PERICENTER": 179.251, "MEAN_ANOMALY": 180.8779, "EPHEMERIS_TYPE": 0, "CLASSIFICATION_TYPE": "U", "NORAD_CAT_ID": 35244, "ELEMENT_SET_NO": 999, "REV_AT_EPOCH": 65711, "BSTAR": 0.00099928, "MEAN_MOTION_DOT": 1.653e-05, "MEAN_MOTION_DDOT": 0}, "tle": {"line1": "1 35244U 99025DRC 25338.88883657  .00001653  00000+0  99928-3 0  9991", "line2": "2 35244  98.8416  19.2870 0071739 179.2510 180.8779 14.06607705657111"}}, "geometry": {"type": "Point", "coordinates": [16.22072311313604, 36.23087583811448]}}, {"type": "Feature", "properties": {"norad_id": 35245, "name": "FENGYUN 1C DEB", "group": "fengyun-1c-debris", "lat": -13.66639106409769, "lon": -114.32139890606929, "alt_km": 852.3625802746974, "timestamp": "2025-12-08T10:52:03.235596+00:00", "meta": {"OBJECT_NAME": "FENGYUN 1C DEB", "OBJECT_ID": "1999-025DRD", "EPOCH": "2025-12-07T17:40:29.166816", "MEAN_MOTION": 14.13042028, "ECCENTRICITY": 0.00587583, "INCLINATION": 99.0846, "RA_OF_ASC_NODE": 67.1815, "ARG_OF_PERICENTER": 284.618, "MEAN_ANOMALY": 227.668, "EPHEMERIS_TYPE": 0, "CLASSIFICATION_TYPE": "U", "NORAD_CAT_ID": 35245, "ELEMENT_SET_NO": 999, "REV_AT_EPOCH": 87706, "BSTAR": 0.0027626108, "MEAN_MOTION_DOT": 5.197e-05, "MEAN_MOTION_DDOT": 0}, "tle": {"line1": "1 35245U 99025DRD 25341.73644869  .00005197  00000+0  27626-2 0  9992", "line2": "2 35245  99.0846  67.1815 0058758 284.6180 227.6680 14.13042028877061"}}, "geometry": {"type": "Point", "coordinates": [-114.32139890606929, -13.66639106409769]}}, {"type": "Feature", "properties": {"norad_id": 36147, "name": "FENGYUN 1C DEB", "group": "fengyun-1c-debris", "lat": 6.309017014599669, "lon": -127.73316279966629, "alt_km": 1132.6185252817822, "timestamp": "2025-12-08T10:52:03.235606+00:00", "meta": {"OBJECT_NAME": "FENGYUN 1C DEB", "OBJECT_ID": "1999-025DRU", "EPOCH": "2025-12-06T11:35:31.438464", "MEAN_MOTION": 13.46487115, "ECCENTRICITY": 0.04411963, "INCLINATION": 98.5268, "RA_OF_ASC_NODE": 49.6332, "ARG_OF_PERICENTER": 279.0005, "MEAN_ANOMALY": 76.1459, "EPHEMERIS_TYPE": 0, "CLASSIFICATION_TYPE": "U", "NORAD_CAT_ID": 36147, "ELEMENT_SET_NO": 999, "REV_AT_EPOCH": 59913, "BSTAR": 0.0028331014, "MEAN_MOTION_DOT": 3.048e-05, "MEAN_MOTION_DDOT": 0}, "tle": {"line1": "1 36147U 99025DRU 25340.48300276  .00003048  00000+0  28331-2 0  9993", "line2": "2 36147  98.5268  49.6332 0441196 279.0005  76.1459 13.46487115599135"}}, "geometry": {"type": "Point", "coordinates": [-127.73316279966629, 6.309017014599669]}}, {"type": "Feature", "properties": {"norad_id": 36148, "name": "FENGYUN 1C DEB", "group": "fengyun-1c-debris", "lat": -73.31460769240195, "lon": -15.935004729329373, "alt_km": 1005.107262661345, "timestamp": "2025-12-08T10:52:03.235616+00:00", "meta": {"OBJECT_NAME": "FENGYUN 1C DEB", "OBJECT_ID": "1999-025DRV", "EPOCH": "2025-12-06T07:20:19.682304", "MEAN_MOTION": 13.84847219, "ECCENTRICITY": 0.02850315, "INCLINATION": 98.422, "RA_OF_ASC_NODE": 191.756, "ARG_OF_PERICENTER": 7.1766, "MEAN_ANOMALY": 353.3342, "EPHEMERIS_TYPE": 0, "CLASSIFICATION_TYPE": "U", "NORAD_CAT_ID": 36148, "ELEMENT_SET_NO": 999, "REV_AT_EPOCH": 90155, "BSTAR": 0.0053018376, "MEAN_MOTION_DOT": 8.171e-05, "MEAN_MOTION_DDOT": 0}, "tle": {"line1": "1 36148U 99025DRV 25340.30578336  .00008171  00000+0  53018-2 0  9991", "line2": "2 36148  98.4220 191.7560 0285031   7.1766 353.3342 13.84847219901554"}}, "geometry": {"type": "Point", "coordinates": [-15.935004729329373, -73.31460769240195]}}, {"type": "Feature", "properties": {"norad_id": 36152, "name": "FENGYUN 1C DEB", "group": "fengyun-1c-debris", "lat": -66.84793681517834, "lon": 43.44120539918206, "alt_km": 826.1805037772901, "timestamp": "2025-12-08T10:52:03.235626+00:00", "meta": {"OBJECT_NAME": "FENGYUN 1C DEB", "OBJECT_ID": "1999-025DRZ", "EPOCH": "2025-12-05T08:38:09.614400", "MEAN_MOTION": 14.17194433, "ECCENTRICITY": 0.00555046, "INCLINATION": 98.7557, "RA_OF_ASC_NODE": 19.2702, "ARG_OF_PERICENTER": 233.3678, "MEAN_ANOMALY": 126.2385, "EPHEMERIS_TYPE": 0, "CLASSIFICATION_TYPE": "U", "NORAD_CAT_ID": 36152, "ELEMENT_SET_NO": 999, "REV_AT_EPOCH": 64052, "BSTAR": 0.0020553524, "MEAN_MOTION_DOT": 4.166e-05, "MEAN_MOTION_DDOT": 0}, "tle": {"line1": "1 36152U 99025DRZ 25339.35983350  .00004166  00000+0  20554-2 0  9994", "line2": "2 36152  98.7557  19.2702 0055504 233.3678 126.2385 14.17194433640523"}}, "geometry": {"type": "Point", "coordinates": [43.44120539918206, -66.84793681517834]}}, {"type": "Feature", "properties": {"norad_id": 36163, "name": "FENGYUN 1C DEB", "group": "fengyun-1c-debris", "lat": 38.027392420278396, "lon": 13.31080296576768, "alt_km": 679.7609742201421, "timestamp": "2025-12-08T10:52:03.235636+00:00", "meta": {"OBJECT_NAME": "FENGYUN 1C DEB", "OBJECT_ID": "1999-025DSL", "EPOCH": "2025-11-27T12:26:15.654336", "MEAN_MOTION": 14.58361311, "ECCENTRICITY": 0.00369307, "INCLINATION": 99.0776, "RA_OF_ASC_NODE": 174.1952, "ARG_OF_PERICENTER": 119.0745, "MEAN_ANOMALY": 241.4158, "EPHEMERIS_TYPE": 0, "CLASSIFICATION_TYPE": "U", "NORAD_CAT_ID": 36163, "ELEMENT_SET_NO": 999, "REV_AT_EPOCH": 88965, "BSTAR": 0.0029707469, "MEAN_MOTION_DOT": 0.00013857, "MEAN_MOTION_DDOT": 0}, "tle": {"line1": "1 36163U 99025DSL 25331.51823674  .00013857  00000+0  29707-2 0  9994", "line2": "2 36163  99.0776 174.1952 0036930 119.0745 241.4158 14.58361311889650"}}, "geometry": {"type": "Point", "coordinates": [13.31080296576768, 38.027392420278396]}}, {"type": "Feature", "properties": {"norad_id": 36167, "name": "FENGYUN 1C DEB", "group": "fengyun-1c-debris", "lat": 28.84333627548011, "lon": -115.46624290107668, "alt_km": 759.3792628267402, "timestamp": "2025-12-08T10:52:03.235646+00:00", "meta": {"OBJECT_NAME": "FENGYUN 1C DEB", "OBJECT_ID": "1999-025DSQ", "EPOCH": "2025-12-07T23:07:58.529568", "MEAN_MOTION": 14.49186698, "ECCENTRICITY": 0.00691461, "INCLINATION": 98.8125, "RA_OF_ASC_NODE": 248.9245, "ARG_OF_PERICENTER": 259.1418, "MEAN_ANOMALY": 100.1987, "EPHEMERIS_TYPE": 0, "CLASSIFICATION_TYPE": "U", "NORAD_CAT_ID": 36167, "ELEMENT_SET_NO": 999, "REV_AT_EPOCH": 67210, "BSTAR": 0.0015389522, "MEAN_MOTION_DOT": 5.992e-05, "MEAN_MOTION_DDOT": 0}, "tle": {"line1": "1 36167U 99025DSQ 25341.96387187  .00005992  00000+0  15390-2 0  9996", "line2": "2 36167  98.8125 248.9245 0069146 259.1418 100.1987 14.49186698672106"}}, "geometry": {"type": "Point", "coordinates": [-115.46624290107668, 28.84333627548011]}}]}